NORAD_CAT_ID,OBJECT_NAME,OBJECT_TYPE,EPOCH,MEAN_MOTION,ECCENTRICITY,INCLINATION,RA_OF_ASC_NODE,ARG_OF_PERICENTER,MEAN_ANOMALY,BSTAR,MEAN_MOTION_DOT,MEAN_MOTION_DDOT,TLE_LINE0,TLE_LINE1,TLE_LINE2,SEMIMAJOR_AXIS,PERIOD,APOGEE,PERIGEE,DECAYED
51956.0,STARLINK-3700,PAYLOAD,2022-12-31 20:15:58,15.08821249,0.0002835,53.2168,213.832,30.6436,329.4721,0.00039326,5.973e-05,0.0,0 STARLINK-3700,1 51956U 22025A   22365.84442343  .00005973  00000-0  39326-3 0  9997,2 51956  53.2168 213.8320 0002835  30.6436 329.4721 15.08821249 46583,6917.938,95.439,541.764,537.841,0.0
51956.0,STARLINK-3700,PAYLOAD,2023-01-01 07:23:39,15.08840632,0.0003032,53.2164,211.75,30.9277,329.1893,-6.9038e-05,-1.387e-05,0.0,0 STARLINK-3700,1 51956U 22025A   23001.30809909 -.00001387  00000-0 -69038-4 0  9992,2 51956  53.2164 211.7500 0003032  30.9277 329.1893 15.08840632 46654,6917.878000000002,95.438,541.841,537.646,0.0
51956.0,STARLINK-3700,PAYLOAD,2023-01-01 13:45:12,15.08836759,0.0003013,53.2163,210.5603,32.5727,327.5451,-6.9521e-05,-1.395e-05,0.0,0 STARLINK-3700,1 51956U 22025A   23001.57306147 -.00001395  00000-0 -69521-4 0  9993,2 51956  53.2163 210.5603 0003013  32.5727 327.5451 15.08836759 45602,6917.89,95.438,541.84,537.6709999999998,0.0
51956.0,STARLINK-3700,PAYLOAD,2023-01-01 20:06:44,15.08838254,0.0003006,53.216,209.3708,32.6434,327.4743,-4.8801e-05,-1.065e-05,0.0,0 STARLINK-3700,1 51956U 22025A   23001.83802001 -.00001065  00000-0 -48801-4 0  9994,2 51956  53.2160 209.3708 0003006  32.6434 327.4743 15.08838254 45648,6917.886,95.438,541.83,537.6709999999998,0.0
51956.0,STARLINK-3700,PAYLOAD,2023-01-02 13:35:59,15.08836898,0.0002894,53.2163,206.0995,32.2295,327.8874,3.3411e-05,2.43e-06,0.0,0 STARLINK-3700,1 51956U 22025A   23002.56665957  .00000243  00000-0  33411-4 0  9998,2 51956  53.2163 206.0995 0002894  32.2295 327.8874 15.08836898 46842,6917.89,95.438,541.757,537.753,0.0
51956.0,STARLINK-3700,PAYLOAD,2023-01-02 19:57:31,15.08840007,0.0003002,53.216,204.9106,32.8679,327.2499,3.8263e-05,3.2e-06,0.0,0 STARLINK-3700,1 51956U 22025A   23002.83161815  .00000320  00000-0  38263-4 0  9998,2 51956  53.2160 204.9106 0003002  32.8679 327.2499 15.08840007 45791,6917.88,95.438,541.822,537.669,0.0
51956.0,STARLINK-3700,PAYLOAD,2023-01-03 13:26:46,15.08836474,0.0003091,53.2161,201.6399,33.7216,326.3973,0.00013683,1.89e-05,0.0,0 STARLINK-3700,1 51956U 22025A   23003.56026013  .00001890  00000-0  13683-3 0  9990,2 51956  53.2161 201.6399 0003091  33.7216 326.3973 15.08836474 45908,6917.891,95.438,541.894,537.618,0.0
51956.0,STARLINK-3700,PAYLOAD,2023-01-03 19:48:19,15.08831531,0.0003103,53.216,200.45,34.8445,325.275,8.8489e-05,1.12e-05,0.0,0 STARLINK-3700,1 51956U 22025A   23003.82522638  .00001120  00000-0  88489-4 0  9996,2 51956  53.2160 200.4500 0003103  34.8445 325.2750 15.08831531 47034,6917.906,95.438,541.918,537.625,0.0
51956.0,STARLINK-3700,PAYLOAD,2023-01-04 05:20:38,15.08830968,0.0003141,53.2162,198.6658,34.5663,325.5533,4.5209e-05,4.31e-06,0.0,0 STARLINK-3700,1 51956U 22025A   23004.22267038  .00000431  00000-0  45209-4 0  9998,2 51956  53.2162 198.6658 0003141  34.5663 325.5533 15.08830968 46000,6917.908,95.438,541.946,537.6,0.0
51956.0,STARLINK-3700,PAYLOAD,2023-01-04 19:39:06,15.08837318,0.0003154999999999,53.2164,195.9892,34.762,325.3577,9.8676e-05,1.282e-05,0.0,0 STARLINK-3700,1 51956U 22025A   23004.81882668  .00001282  00000-0  98676-4 0  9996,2 51956  53.2164 195.9892 0003155  34.7620 325.3577 15.08837318 46093,6917.889,95.438,541.936,537.571,0.0
51956.0,STARLINK-3700,PAYLOAD,2023-01-05 08:22:11,15.08838128,0.0003191999999999,53.2162,193.6107,35.3951,324.7252,0.00015268,2.142e-05,0.0,0 STARLINK-3700,1 51956U 22025A   23005.34874372  .00002142  00000-0  15268-3 0  9999,2 51956  53.2162 193.6107 0003192  35.3951 324.7252 15.08838128 47263,6917.886,95.438,541.9590000000002,537.543,0.0
51956.0,STARLINK-3700,PAYLOAD,2023-01-05 11:32:57,15.08839121,0.0003197,53.2162,193.0159,35.7395,324.381,0.00015907,2.244e-05,0.0,0 STARLINK-3700,1 51956U 22025A   23005.48122360  .00002244  00000-0  15907-3 0  9990,2 51956  53.2162 193.0159 0003197  35.7395 324.3810 15.08839121 46196,6917.8830000000025,95.438,541.96,537.536,0.0
51956.0,STARLINK-3700,PAYLOAD,2023-01-05 19:29:53,15.08844314,0.0003207,53.2163,191.5293,36.437,323.684,0.00019435,2.806e-05,0.0,0 STARLINK-3700,1 51956U 22025A   23005.81242002  .00002806  00000-0  19435-3 0  9997,2 51956  53.2163 191.5293 0003207  36.4370 323.6840 15.08844314 46243,6917.8669999999975,95.437,541.951,537.514,0.0
51956.0,STARLINK-3700,PAYLOAD,2023-01-06 14:34:31,15.08839473,0.000326,53.2151,187.9613,37.4905,322.6314,2.7826e-05,1.54e-06,0.0,0 STARLINK-3700,1 51956U 22025A   23006.60730406  .00000154  00000-0  27826-4 0  9993,2 51956  53.2151 187.9613 0003260  37.4905 322.6314 15.08839473 47458,6917.882,95.438,542.002,537.492,0.0
51956.0,STARLINK-3700,PAYLOAD,2023-01-06 20:56:03,15.08842804,0.0003281,53.2151,186.7718,37.972,322.1503,3.4028e-05,2.53e-06,0.0,0 STARLINK-3700,1 51956U 22025A   23006.87226216  .00000253  00000-0  34028-4 0  9993,2 51956  53.2151 186.7718 0003281  37.9720 322.1503 15.08842804 46405,6917.871999999999,95.437,542.007,537.467,0.0
51956.0,STARLINK-3700,PAYLOAD,2023-01-07 04:52:58,15.08848063,0.0003263,53.2164,185.2851,38.5926,321.5299,9.6873e-05,1.254e-05,0.0,0 STARLINK-3700,1 51956U 22025A   23007.20346043  .00001254  00000-0  96873-4 0  9990,2 51956  53.2164 185.2851 0003263  38.5926 321.5299 15.08848063 46459,6917.856,95.437,541.9780000000002,537.4630000000002,0.0
51956.0,STARLINK-3700,PAYLOAD,2023-01-07 14:25:18,15.08842443,0.0003283,53.2161,183.5001,40.374,319.7496,1.8645e-05,8e-08,0.0,0 STARLINK-3700,1 51956U 22025A   23007.60090456  .00000008  00000-0  18645-4 0  9995,2 51956  53.2161 183.5001 0003283  40.3740 319.7496 15.08842443 46512,6917.873000000001,95.437,542.009,537.467,0.0
51956.0,STARLINK-3700,PAYLOAD,2023-01-08 04:43:46,15.08840455,0.00033,53.2163,180.8241,40.3298,319.7939,2.7084e-05,1.42e-06,0.0,0 STARLINK-3700,1 51956U 22025A   23008.19706482  .00000142  00000-0  27084-4 0  9999,2 51956  53.2163 180.8241 0003300  40.3298 319.7939 15.08840455 47691,6917.879,95.438,542.0269999999998,537.461,0.0
51956.0,STARLINK-3700,PAYLOAD,2023-01-08 11:05:18,15.08840781,0.0003287,53.2164,179.6343,40.2365,319.887,9.8672e-05,1.282e-05,0.0,0 STARLINK-3700,1 51956U 22025A   23008.46202261  .00001282  00000-0  98672-4 0  9992,2 51956  53.2164 179.6343 0003287  40.2365 319.8870 15.08840781 46640,6917.8780000000015,95.438,542.0169999999998,537.469,0.0
51956.0,STARLINK-3700,PAYLOAD,2023-01-08 14:16:04,15.08844175,0.0003309,53.2163,179.0397,40.6001,319.5238,0.00012256,1.663e-05,0.0,0 STARLINK-3700,1 51956U 22025A   23008.59449987  .00001663  00000-0  12256-3 0  9990,2 51956  53.2163 179.0397 0003309  40.6001 319.5238 15.08844175 46666,6917.868,95.437,542.0219999999998,537.444,0.0
51956.0,STARLINK-3700,PAYLOAD,2023-01-09 04:34:32,15.08847269,0.000325,53.2165,176.3635,40.699,319.4245,7.2468e-05,8.65e-06,0.0,0 STARLINK-3700,1 51956U 22025A   23009.19065748  .00000865  00000-0  72468-4 0  9991,2 51956  53.2165 176.3635 0003250  40.6990 319.4245 15.08847269 47840,6917.858,95.437,541.971,537.475,0.0
51956.0,STARLINK-3700,PAYLOAD,2023-01-09 10:56:05,15.08842486,0.000313,53.2167,175.1742,39.6578,320.4643,9.3688e-05,1.203e-05,0.0,0 STARLINK-3700,1 51956U 22025A   23009.45561874  .00001203  00000-0  93688-4 0  9995,2 51956  53.2167 175.1742 0003130  39.6578 320.4643 15.08842486 46798,6917.873000000001,95.437,541.903,537.572,0.0
51956.0,STARLINK-3700,PAYLOAD,2023-01-09 12:31:28,15.08843409,0.0003147,53.2166,174.8769,39.9859,320.1364,9.6655e-05,1.25e-05,0.0,0 STARLINK-3700,1 51956U 22025A   23009.52185822  .00001250  00000-0  96655-4 0  9997,2 51956  53.2166 174.8769 0003147  39.9859 320.1364 15.08843409 46800,6917.87,95.437,541.9119999999998,537.558,0.0
51956.0,STARLINK-3700,PAYLOAD,2023-01-10 10:46:52,15.08837866,0.0003299,53.2162,170.7142,42.4292,317.6955,-1.6505999999999994e-05,-5.52e-06,0.0,0 STARLINK-3700,1 51956U 22025A   23010.44922363 -.00000552  00000-0 -16506-4 0  9992,2 51956  53.2162 170.7142 0003299  42.4292 317.6955 15.08837866 48038,6917.887,95.438,542.034,537.47,0.0
51956.0,STARLINK-3700,PAYLOAD,2023-01-10 17:08:26,15.08827019,0.0003142,53.2165,169.524,42.2689,317.8545,-9.1348e-05,-1.742e-05,0.0,0 STARLINK-3700,1 51956U 22025A   23010.71419262 -.00001742  00000-0 -91348-4 0  9990,2 51956  53.2165 169.5240 0003142  42.2689 317.8545 15.08827019 48071,6917.92,95.438,541.9590000000002,537.611,0.0
51956.0,STARLINK-3700,PAYLOAD,2023-01-11 20:09:59,15.08836338,0.0003143,53.2165,164.4688,43.3349,316.789,-2.9728e-05,-7.62e-06,0.0,0 STARLINK-3700,1 51956U 22025A   23011.84027252 -.00000762  00000-0 -29728-4 0  9993,2 51956  53.2165 164.4688 0003143  43.3349 316.7890 15.08836338 47150,6917.892,95.438,541.931,537.582,0.0
51956.0,STARLINK-3700,PAYLOAD,2023-01-12 02:31:32,15.08823694,0.0003114,53.2175,163.2786,40.8122,319.3103,0.00010937,1.452e-05,0.0,0 STARLINK-3700,1 51956U 22025A   23012.10523616  .00001452  00000-0  10937-3 0  9994,2 51956  53.2175 163.2786 0003114  40.8122 319.3103 15.08823694 48288,6917.93,95.439,541.9490000000002,537.641,0.0
51956.0,STARLINK-3700,PAYLOAD,2023-01-12 16:50:00,15.08828004,0.0003003999999999,53.2173,160.6048,36.6033,323.5163,0.00012538,1.707e-05,0.0,0 STARLINK-3700,1 51956U 22025A   23012.70139877  .00001707  00000-0  12538-3 0  9994,2 51956  53.2173 160.6048 0003004  36.6033 323.5163 15.08828004 47282,6917.917,95.438,541.86,537.7040000000002,0.0
51956.0,STARLINK-3700,PAYLOAD,2023-01-13 13:30:01,15.08835608,0.0003068,53.2159,156.7394,42.6052,317.5178,8.4097e-05,1.05e-05,0.0,0 STARLINK-3700,1 51956U 22025A   23013.56252246  .00001050  00000-0  84097-4 0  9996,2 51956  53.2159 156.7394 0003068  42.6052 317.5178 15.08835608 48507,6917.894,95.438,541.881,537.636,0.0
